[{"OBJECT_NAME":"STARLINK-3944","OBJECT_ID":"2022-051M","EPOCH":"2026-03-09T10:42:59.541408","MEAN_MOTION":15.0882908,"ECCENTRICITY":0.00013948,"INCLINATION":53.2167,"RA_OF_ASC_NODE":135.2256,"ARG_OF_PERICENTER":86.1024,"MEAN_ANOMALY":274.0128,"EPHEMERIS_TYPE":0,"CLASSIFICATION_TYPE":"U","NORAD_CAT_ID":52544,"ELEMENT_SET_NO":999,"REV_AT_EPOCH":21133,"BSTAR":-3.7713176e-5,"MEAN_MOTION_DOT":-8.88e-6,"MEAN_MOTION_DDOT":0},{"OBJECT_NAME":"OBJECT J","OBJECT_ID":"2024-205J","EPOCH":"2026-03-09T23:28:57.561600","MEAN_MOTION":15.10710806,"ECCENTRICITY":0.00148701,"INCLINATION":97.4211,"RA_OF_ASC_NODE":142.3026,"ARG_OF_PERICENTER":147.8528,"MEAN_ANOMALY":212.3612,"EPHEMERIS_TYPE":0,"CLASSIFICATION_TYPE":"U","NORAD_CAT_ID":61902,"ELEMENT_SET_NO":999,"REV_AT_EPOCH":7320,"BSTAR":0.00056466438,"MEAN_MOTION_DOT":9.322e-5,"MEAN_MOTION_DDOT":0}]
